     2              NAVIGATION DATA                         RINEX VERSION / TYPE
CCRINEXN V1.6.0 UX  CDDIS               28-APR-26 23:31     PGM / RUN BY / DATE 
IGS BROADCAST EPHEMERIS FILE                                COMMENT             
    0.2515D-07  0.1490D-07 -0.1192D-06 -0.5960D-07          ION ALPHA           
    0.1290D+06  0.4915D+05 -0.2621D+06  0.1966D+06          ION BETA            
    0.186264514923D-08 0.444089209850D-14   319488     2416 DELTA-UTC: A0,A1,T,W
    18                                                      LEAP SECONDS        
                                                            END OF HEADER       
27 26  4 27 13 59 44.0-0.125823076814D-03-0.172803993337D-10 0.000000000000D+00
    0.700000000000D+01 0.173750000000D+02 0.516950104475D-08 0.233835950144D+01
    0.629574060440D-06 0.143627520884D-01 0.344403088093D-05 0.515366609955D+04
    0.136784000000D+06-0.782310962677D-07 0.996284618796D+00-0.240281224251D-06
    0.951862457395D+00 0.308875000000D+03 0.895442679536D+00-0.836713423901D-08
    0.571452374714D-11 0.100000000000D+01 0.241600000000D+04 0.000000000000D+00
    0.200000000000D+01 0.000000000000D+00 0.232830600000D-08 0.700000000000D+01
    0.130560000000D+06 0.400000000000D+01 0.000000000000D+00 0.000000000000D+00
30 26  4 27 13 59 44.0 0.202369876206D-03 0.134150468512D-10 0.000000000000D+00
    0.000000000000D+00-0.490312500000D+02 0.499092217766D-08-0.811892973253D+00
   -0.236928462982D-05 0.821920973249D-02 0.911206007004D-05 0.515373229790D+04
    0.136784000000D+06 0.689178705216D-07-0.109162249263D+01 0.176951289177D-06
    0.936078077489D+00 0.190093750000D+03-0.228194578592D+01-0.837963475971D-08
   -0.183936233111D-09 0.100000000000D+01 0.241600000000D+04 0.000000000000D+00
    0.200000000000D+01 0.000000000000D+00 0.419095158577D-08 0.000000000000D+00
    0.133188000000D+06 0.400000000000D+01 0.000000000000D+00 0.000000000000D+00
 1 26  4 27 14  0  0.0 0.288315583020D-03-0.875388650456D-11 0.000000000000D+00
    0.780000000000D+02-0.585625000000D+02 0.460554898246D-08 0.102487496371D+01
   -0.288709998131D-05 0.172342918813D-02 0.903941690922D-05 0.515361597443D+04
    0.136800000000D+06 0.186264514923D-07 0.213476599110D+01 0.745058059692D-08
    0.957491950492D+00 0.200343750000D+03 0.179442734122D+00-0.813176729218D-08
   -0.417160233541D-09 0.100000000000D+01 0.241600000000D+04 0.000000000000D+00
    0.200000000000D+01 0.000000000000D+00-0.931322574616D-08 0.590000000000D+03
    0.129618000000D+06 0.400000000000D+01 0.000000000000D+00 0.000000000000D+00
 2 26  4 27 14  0  0.0 0.872942619026D-04 0.773070496507D-11 0.000000000000D+00
    0.810000000000D+02-0.638750000000D+02 0.450733060555D-08 0.253632175002D+01
   -0.302679836750D-05 0.168076639529D-01 0.841170549393D-05 0.515376403236D+04
    0.136800000000D+06 0.186264514923D-06 0.197242884063D+01 0.245869159698D-06
    0.962542767324D+00 0.214906250000D+03-0.775790036369D+00-0.792211570220D-08
   -0.562880589093D-09 0.100000000000D+01 0.241600000000D+04 0.000000000000D+00
    0.200000000000D+01 0.000000000000D+00-0.176951289177D-07 0.810000000000D+02
    0.129618000000D+06 0.400000000000D+01 0.000000000000D+00 0.000000000000D+00
 3 26  4 27 14  0  0.0 0.487210694700D-03-0.148929757415D-10 0.000000000000D+00
    0.640000000000D+02 0.388125000000D+02 0.368658213237D-08-0.102368771060D+01
    0.200793147087D-05 0.673786457628D-02 0.959262251854D-05 0.515359836960D+04
    0.136800000000D+06 0.186264514923D-08 0.312355663649D+01 0.126659870148D-06
    0.994333064135D+00 0.211437500000D+03 0.121300621407D+01-0.770746390395D-08
    0.232152527227D-09 0.100000000000D+01 0.241600000000D+04 0.000000000000D+00
    0.200000000000D+01 0.000000000000D+00 0.139698386192D-08 0.640000000000D+02
    0.129618000000D+06 0.400000000000D+01 0.000000000000D+00 0.000000000000D+00
 4 26  4 27 14  0  0.0 0.549457035959D-04 0.147792889038D-11 0.000000000000D+00
    0.109000000000D+03-0.133750000000D+02 0.455626121514D-08 0.192421583278D+01
   -0.678002834320D-06 0.371655216441D-02 0.405870378017D-05 0.515370470810D+04
    0.136800000000D+06-0.204890966415D-07-0.209043010676D+01 0.372529029846D-08
    0.970969687482D+00 0.308125000000D+03-0.287254973761D+01-0.822891419588D-08
   -0.110718897601D-10 0.100000000000D+01 0.241600000000D+04 0.000000000000D+00
    0.200000000000D+01 0.000000000000D+00-0.465661287308D-08 0.365000000000D+03
    0.129618000000D+06 0.400000000000D+01 0.000000000000D+00 0.000000000000D+00
 5 26  4 27 14  0  0.0-0.232280232012D-03-0.454747350886D-12 0.000000000000D+00
    0.420000000000D+02 0.409687500000D+02 0.390373403476D-08 0.258271692270D+01
    0.211596488953D-05 0.551506259944D-02 0.971369445324D-05 0.515373597717D+04
    0.136800000000D+06 0.109896063805D-06 0.306311278939D+01 0.540167093277D-07
    0.980813952895D+00 0.202281250000D+03 0.142526277125D+01-0.769424906779D-08
    0.262868092368D-09 0.100000000000D+01 0.241600000000D+04 0.000000000000D+00
    0.200000000000D+01 0.000000000000D+00-0.107102096081D-07 0.420000000000D+02
    0.129618000000D+06 0.400000000000D+01 0.000000000000D+00 0.000000000000D+00
 6 26  4 27 14  0  0.0-0.608053058386D-03 0.261479726760D-11 0.000000000000D+00
    0.750000000000D+02-0.498750000000D+02 0.386587531494D-08 0.251435413911D+00
   -0.271946191788D-05 0.375971465837D-02 0.917539000511D-05 0.515367064094D+04
    0.136800000000D+06 0.298023223877D-07 0.208684489100D+01-0.260770320892D-07
    0.986283452493D+00 0.218062500000D+03-0.526465352847D+00-0.779996775711D-08
   -0.428232123301D-09 0.100000000000D+01 0.241600000000D+04 0.000000000000D+00
    0.200000000000D+01 0.000000000000D+00 0.372529029846D-08 0.750000000000D+02
    0.136032000000D+06 0.400000000000D+01 0.000000000000D+00 0.000000000000D+00
 8 26  4 27 14  0  0.0 0.453934539110D-03-0.716227077646D-11 0.000000000000D+00
    0.710000000000D+02 0.240000000000D+02 0.546594196414D-08 0.222777065250D+01
    0.114366412163D-05 0.115988461766D-01 0.360794365406D-05 0.515370675087D+04
    0.136800000000D+06-0.273808836937D-06 0.963766376875D+00-0.521540641785D-07
    0.942784952697D+00 0.303031250000D+03 0.538765227197D+00-0.859392940023D-08
    0.471448209139D-10 0.100000000000D+01 0.241600000000D+04 0.000000000000D+00
    0.200000000000D+01 0.000000000000D+00 0.465661287308D-08 0.710000000000D+02
    0.129618000000D+06 0.400000000000D+01 0.000000000000D+00 0.000000000000D+00
 9 26  4 27 14  0  0.0 0.755994580686D-03-0.363797880709D-11 0.000000000000D+00
    0.350000000000D+02-0.946875000000D+01 0.461054919074D-08 0.283271048016D+01
   -0.409781932831D-06 0.337512081023D-02 0.411085784435D-05 0.515374253464D+04
    0.136800000000D+06-0.186264514923D-08-0.215506075372D+01 0.000000000000D+00
    0.965232179829D+00 0.303125000000D+03 0.204418390156D+01-0.820105589261D-08
    0.567880797372D-10 0.100000000000D+01 0.241600000000D+04 0.000000000000D+00
    0.200000000000D+01 0.000000000000D+00 0.465661287308D-09 0.350000000000D+02
    0.129618000000D+06 0.400000000000D+01 0.000000000000D+00 0.000000000000D+00
10 26  4 27 14  0  0.0-0.587946735323D-03 0.159161572810D-11 0.000000000000D+00
    0.700000000000D+02 0.461250000000D+02 0.355371945525D-08-0.201637947720D+01
    0.233575701714D-05 0.109441246604D-01 0.101309269667D-04 0.515364990044D+04
    0.136800000000D+06 0.115483999252D-06 0.312104867849D+01-0.167638063431D-06
    0.993857612833D+00 0.202468750000D+03-0.225775356669D+01-0.743780981463D-08
    0.383587406527D-09 0.100000000000D+01 0.241600000000D+04 0.000000000000D+00
    0.200000000000D+01 0.000000000000D+00 0.232830643654D-08 0.700000000000D+02
    0.131352000000D+06 0.400000000000D+01 0.000000000000D+00 0.000000000000D+00
11 26  4 27 14  0  0.0-0.359108205885D-03 0.126192389871D-10 0.000000000000D+00
    0.172000000000D+03-0.443750000000D+02 0.441554106787D-08 0.144093744693D+01
   -0.230222940445D-05 0.223471969366D-02 0.934489071369D-05 0.515360282898D+04
    0.136800000000D+06-0.428408384323D-07 0.210440680122D+01 0.614672899246D-07
    0.963177468962D+00 0.203187500000D+03-0.233938703023D+01-0.804926385558D-08
   -0.408945605654D-09 0.100000000000D+01 0.241600000000D+04 0.000000000000D+00
    0.200000000000D+01 0.000000000000D+00-0.884756445885D-08 0.684000000000D+03
    0.129618000000D+06 0.400000000000D+01 0.000000000000D+00 0.000000000000D+00
12 26  4 27 14  0  0.0-0.607895664871D-03 0.113686837722D-12 0.000000000000D+00
    0.580000000000D+02 0.787500000000D+02 0.468340936851D-08-0.128651203538D+01
    0.432506203651D-05 0.886558741331D-02 0.945664942265D-05 0.515374763107D+04
    0.136800000000D+06-0.484287738800D-07 0.360945353451D-01 0.197440385819D-06
    0.959401958280D+00 0.203281250000D+03 0.157506992597D+01-0.818534095231D-08
    0.435018120251D-09 0.100000000000D+01 0.241600000000D+04 0.000000000000D+00
    0.200000000000D+01 0.000000000000D+00-0.125728547573D-07 0.580000000000D+02
    0.129618000000D+06 0.400000000000D+01 0.000000000000D+00 0.000000000000D+00
14 26  4 27 14  0  0.0 0.744643155485D-03 0.113686837722D-11 0.000000000000D+00
    0.900000000000D+02 0.680312500000D+02 0.492377652363D-08-0.141627546716D+01
    0.342912971973D-05 0.701515597757D-02 0.919215381145D-05 0.515366143036D+04
    0.136800000000D+06 0.707805156708D-07-0.193985994810D-01-0.558793544769D-07
    0.942730356595D+00 0.190250000000D+03-0.272069751705D+01-0.821069915143D-08
    0.415374444870D-09 0.100000000000D+01 0.241600000000D+04 0.000000000000D+00
    0.200000000000D+01 0.000000000000D+00-0.838190317154D-08 0.858000000000D+03
    0.129618000000D+06 0.400000000000D+01 0.000000000000D+00 0.000000000000D+00
